{
  "type": "FeatureCollection",
  "features": [
    {
      "type": "Feature",
      "properties": {
        "norad_id": 66616,
        "name": "STARLINK-35391",
        "group": "last-30-days",
        "lat": 8.21587270718938,
        "lon": 158.41995189163532,
        "alt_km": 442.68384181482725,
        "timestamp": "2025-12-20T03:42:46.118760+00:00",
        "meta_object_name": "STARLINK-35391",
        "meta_object_id": "2025-270AE",
        "meta_epoch": "2025-12-19T20:00:01.999008",
        "meta_mean_motion": 15.40661614,
        "meta_eccentricity": 0.0001389,
        "meta_inclination": 43.0001,
        "meta_ra_of_asc_node": 151.3586,
        "meta_arg_of_pericenter": 280.1292,
        "meta_mean_anomaly": 107.6014,
        "meta_ephemeris_type": 0,
        "meta_classification_type": "U",
        "meta_norad_cat_id": 66616,
        "meta_element_set_no": 999,
        "meta_rev_at_epoch": 564,
        "meta_bstar": 0.0013811,
        "meta_mean_motion_dot": 0.00057753,
        "meta_mean_motion_ddot": 0,
        "tle_line1": "1 66616U 25270AE  25353.83335647  .00057753  00000+0  13811-2 0  9990",
        "tle_line2": "2 66616  43.0001 151.3586 0001389 280.1292 107.6014 15.40661614  5647"
      },
      "geometry": {
        "type": "Point",
        "coordinates": [
          158.41995189163532,
          8.21587270718938
        ]
      }
    },
    {
      "type": "Feature",
      "properties": {
        "norad_id": 66617,
        "name": "STARLINK-35940",
        "group": "last-30-days",
        "lat": -46.98725873300348,
        "lon": 25.623708686597865,
        "alt_km": 452.4072645129163,
        "timestamp": "2025-12-20T03:42:46.118770+00:00",
        "meta_object_name": "STARLINK-35940",
        "meta_object_id": "2025-271A",
        "meta_epoch": "2025-12-19T00:00:02.000160",
        "meta_mean_motion": 15.39596888,
        "meta_eccentricity": 0.00013918,
        "meta_inclination": 53.1586,
        "meta_ra_of_asc_node": 157.5858,
        "meta_arg_of_pericenter": 105.8265,
        "meta_mean_anomaly": 216.5412,
        "meta_ephemeris_type": 0,
        "meta_classification_type": "U",
        "meta_norad_cat_id": 66617,
        "meta_element_set_no": 999,
        "meta_rev_at_epoch": 524,
        "meta_bstar": 0.00083644886,
        "meta_mean_motion_dot": 0.00033178,
        "meta_mean_motion_ddot": 0,
        "tle_line1": "1 66617U 25271A   25353.00002315  .00033178  00000+0  83645-3 0  9992",
        "tle_line2": "2 66617  53.1586 157.5858 0001391 105.8265 216.5412 15.39596888  5240"
      },
      "geometry": {
        "type": "Point",
        "coordinates": [
          25.623708686597865,
          -46.98725873300348
        ]
      }
    },
    {
      "type": "Feature",
      "properties": {
        "norad_id": 66618,
        "name": "STARLINK-35970",
        "group": "last-30-days",
        "lat": 42.240024655184264,
        "lon": -71.24051746879175,
        "alt_km": 412.3280823892301,
        "timestamp": "2025-12-20T03:42:46.118781+00:00",
        "meta_object_name": "STARLINK-35970",
        "meta_object_id": "2025-271B",
        "meta_epoch": "2025-12-18T21:46:16.468320",
        "meta_mean_motion": 15.49335101,
        "meta_eccentricity": 7.172e-05,
        "meta_inclination": 53.159,
        "meta_ra_of_asc_node": 157.6323,
        "meta_arg_of_pericenter": 82.1987,
        "meta_mean_anomaly": 277.9103,
        "meta_ephemeris_type": 0,
        "meta_classification_type": "U",
        "meta_norad_cat_id": 66618,
        "meta_element_set_no": 999,
        "meta_rev_at_epoch": 516,
        "meta_bstar": 0.00091874022,
        "meta_mean_motion_dot": 0.0005103,
        "meta_mean_motion_ddot": 0,
        "tle_line1": "1 66618U 25271B   25352.90713505  .00051030  00000+0  91874-3 0  9991",
        "tle_line2": "2 66618  53.1590 157.6323 0000717  82.1987 277.9103 15.49335101  5162"
      },
      "geometry": {
        "type": "Point",
        "coordinates": [
          -71.24051746879175,
          42.240024655184264
        ]
      }
    },
    {
      "type": "Feature",
      "properties": {
        "norad_id": 66619,
        "name": "STARLINK-35951",
        "group": "last-30-days",
        "lat": 51.198056345385766,
        "lon": -139.42663391864392,
        "alt_km": 411.0017665833875,
        "timestamp": "2025-12-20T03:42:46.118791+00:00",
        "meta_object_name": "STARLINK-35951",
        "meta_object_id": "2025-271C",
        "meta_epoch": "2025-12-19T04:09:37.126368",
        "meta_mean_motion": 15.49333473,
        "meta_eccentricity": 9.562e-05,
        "meta_inclination": 53.1599,
        "meta_ra_of_asc_node": 156.4548,
        "meta_arg_of_pericenter": 94.0612,
        "meta_mean_anomaly": 266.0506,
        "meta_ephemeris_type": 0,
        "meta_classification_type": "U",
        "meta_norad_cat_id": 66619,
        "meta_element_set_no": 999,
        "meta_rev_at_epoch": 520,
        "meta_bstar": 0.00056183795,
        "meta_mean_motion_dot": 0.00030949,
        "meta_mean_motion_ddot": 0,
        "tle_line1": "1 66619U 25271C   25353.17334637  .00030949  00000+0  56184-3 0  9998",
        "tle_line2": "2 66619  53.1599 156.4548 0000956  94.0612 266.0506 15.49333473  5201"
      },
      "geometry": {
        "type": "Point",
        "coordinates": [
          -139.42663391864392,
          51.198056345385766
        ]
      }
    },
    {
      "type": "Feature",
      "properties": {
        "norad_id": 66620,
        "name": "STARLINK-35936",
        "group": "last-30-days",
        "lat": 49.284538506311684,
        "lon": -147.63229065682356,
        "alt_km": 410.96200080483504,
        "timestamp": "2025-12-20T03:42:46.118801+00:00",
        "meta_object_name": "STARLINK-35936",
        "meta_object_id": "2025-271D",
        "meta_epoch": "2025-12-18T20:26:38.659776",
        "meta_mean_motion": 15.49341209,
        "meta_eccentricity": 0.0001202,
        "meta_inclination": 53.1598,
        "meta_ra_of_asc_node": 158.0059,
        "meta_arg_of_pericenter": 74.9181,
        "meta_mean_anomaly": 285.1961,
        "meta_ephemeris_type": 0,
        "meta_classification_type": "U",
        "meta_norad_cat_id": 66620,
        "meta_element_set_no": 999,
        "meta_rev_at_epoch": 515,
        "meta_bstar": 0.00062165334,
        "meta_mean_motion_dot": 0.00034317,
        "meta_mean_motion_ddot": 0,
        "tle_line1": "1 66620U 25271D   25352.85183634  .00034317  00000+0  62165-3 0  9992",
        "tle_line2": "2 66620  53.1598 158.0059 0001202  74.9181 285.1961 15.49341209  5157"
      },
      "geometry": {
        "type": "Point",
        "coordinates": [
          -147.63229065682356,
          49.284538506311684
        ]
      }
    },
    {
      "type": "Feature",
      "properties": {
        "norad_id": 66621,
        "name": "STARLINK-35847",
        "group": "last-30-days",
        "lat": 40.25950133664157,
        "lon": -67.75642951231758,
        "alt_km": 412.7916361510979,
        "timestamp": "2025-12-20T03:42:46.118813+00:00",
        "meta_object_name": "STARLINK-35847",
        "meta_object_id": "2025-271E",
        "meta_epoch": "2025-12-19T07:02:43.202112",
        "meta_mean_motion": 15.49312278,
        "meta_eccentricity": 0.000134,
        "meta_inclination": 53.1591,
        "meta_ra_of_asc_node": 155.7767,
        "meta_arg_of_pericenter": 58.27,
        "meta_mean_anomaly": 301.844,
        "meta_ephemeris_type": 0,
        "meta_classification_type": "U",
        "meta_norad_cat_id": 66621,
        "meta_element_set_no": 999,
        "meta_rev_at_epoch": 522,
        "meta_bstar": 0.0010412,
        "meta_mean_motion_dot": 0.00057898,
        "meta_mean_motion_ddot": 0,
        "tle_line1": "1 66621U 25271E   25353.29355558  .00057898  00000+0  10412-2 0  9994",
        "tle_line2": "2 66621  53.1591 155.7767 0001340  58.2700 301.8440 15.49312278  5226"
      },
      "geometry": {
        "type": "Point",
        "coordinates": [
          -67.75642951231758,
          40.25950133664157
        ]
      }
    },
    {
      "type": "Feature",
      "properties": {
        "norad_id": 66622,
        "name": "STARLINK-35950",
        "group": "last-30-days",
        "lat": -8.943819671628898,
        "lon": 145.16319987572228,
        "alt_km": 449.2932149897233,
        "timestamp": "2025-12-20T03:42:46.118824+00:00",
        "meta_object_name": "STARLINK-35950",
        "meta_object_id": "2025-271F",
        "meta_epoch": "2025-12-19T20:00:01.999008",
        "meta_mean_motion": 15.39594072,
        "meta_eccentricity": 0.0001198,
        "meta_inclination": 53.1599,
        "meta_ra_of_asc_node": 153.4539,
        "meta_arg_of_pericenter": 83.3869,
        "meta_mean_anomaly": 283.4409,
        "meta_ephemeris_type": 0,
        "meta_classification_type": "U",
        "meta_norad_cat_id": 66622,
        "meta_element_set_no": 999,
        "meta_rev_at_epoch": 538,
        "meta_bstar": 0.0010636,
        "meta_mean_motion_dot": 0.00042346,
        "meta_mean_motion_ddot": 0,
        "tle_line1": "1 66622U 25271F   25353.83335647  .00042346  00000+0  10636-2 0  9992",
        "tle_line2": "2 66622  53.1599 153.4539 0001198  83.3869 283.4409 15.39594072  5383"
      },
      "geometry": {
        "type": "Point",
        "coordinates": [
          145.16319987572228,
          -8.943819671628898
        ]
      }
    }
  ]
}